#aV2024  3 25  0  0  0.00000000     288 DD+AD WGS84 FIT  NGA
## 2307  86400.00000000   300.00000000 60394 0.0000000000000
+   32     1  2  3  4  5  6  7  8  9 10 11 12 13 14 15 16 17
+         18 19 20 21 22 23 24 25 26 27 28 29 30 31 32  0  0
+          0  0  0  0  0  0  0  0  0  0  0  0  0  0  0  0  0
+          0  0  0  0  0  0  0  0  0  0  0  0  0  0  0  0  0
+          0  0  0  0  0  0  0  0  0  0  0  0  0  0  0  0  0
++         2  2  2  2  2  2  2  2  2  2  2  2  2  2  2  2  2
++         2  2  2  2  2  2  2  2  2  2  2  2  2  2  2  0  0
++         0  0  0  0  0  0  0  0  0  0  0  0  0  0  0  0  0
++         0  0  0  0  0  0  0  0  0  0  0  0  0  0  0  0  0
++         0  0  0  0  0  0  0  0  0  0  0  0  0  0  0  0  0
%c cc cc ccc ccc cccc cccc cccc cccc ccccc ccccc ccccc ccccc
%c cc cc ccc ccc cccc cccc cccc cccc ccccc ccccc ccccc ccccc
%f  0.0000000  0.000000000  0.00000000000  0.000000000000000
%f  0.0000000  0.000000000  0.00000000000  0.000000000000000
%i    0    0    0    0      0      0      0      0         0
%i    0    0    0    0      0      0      0      0         0
/*      NGA, ST. LOUIS,MO.                                  
/*   EPHEMERIS COMPUTED FROM 2 DAYS OF DATA                 
/*   EPOCHA v9 SMOOTHER                                     
/*   G2296 IERS2010 SATIGS SATAPC                           
*  2024  3 25  1 40  0.00000000
P  1   2502.047490  14830.521809 -22208.964329    175.814536                    
V  1 -25045.942011  10901.743532   4853.428750      0.021502                    
P  2  -7757.029998  18194.820548 -17108.349670   -464.774757                    
V  2 -20597.305637   9880.927933  19568.094672      0.062712                    
P  3   5485.000337  18611.695370 -18340.434602    271.846424                    
V  3 -19459.947451 -12097.974077 -18122.821633      0.222136                    
P  4  -1532.834629  26366.251322   2054.886235    322.888304                    
V  4  -3081.678546   2267.226880 -31777.456971      0.089800                    
P  5   8527.078927 -12272.371427  21784.804855   -166.631845                    
V  5  23851.843950  14758.547910   -925.266248     -0.014139                    
P  6  24413.767681  -4345.171625  -9602.705826    353.151297                    
V  6 -10406.604209   6605.765208 -29138.122887     -0.169232                    
P  7  13195.725100  10427.680520  21150.620864    -91.959328                    
V  7 -22913.154520  11554.604075   8339.511280     -0.086564                    
P  8  -6208.551637  24531.594982   7198.150319     78.277387                    
V  8  -2817.327079  -9532.299271  30050.707449      0.256790                    
P  9   8538.541069  21007.213090  13705.876510    136.289544                    
V  9  -3247.728790  17416.737212 -24582.380625      0.133017                    
P 10 -23530.830797  -9837.582931  -7776.119986     -2.412987                    
V 10  -7292.215182  -7140.200605  29978.884915     -0.027570                    
P 11  23593.285359 -11870.630806   2582.140433   -616.812582                    
V 11   4029.932604   1189.250123 -31689.051388     -0.113354                    
P 12  -2932.363430 -18930.840031 -18710.768705   -490.310339                    
V 12  18974.533581  13313.721766 -16640.922843     -0.035456                    
P 13  13295.676656 -18614.590638  13097.072516    637.025698                    
V 13  -1522.971269  17108.900231  25689.651312      0.032286                    
P 14  23016.133403  12713.848474  -4416.850274    359.104709                    
V 14   2765.521080   5767.369106  30634.234599      0.096766                    
P 15   3111.503825 -25265.851418   6704.968393    141.199844                    
V 15   4390.045994   8938.079912  29690.824138      0.040130                    
P 16 -14270.439219   7177.939770  20958.427201   -333.236048                    
V 16 -20779.201997 -17724.709082  -7509.441670      0.090239                    
P 17  13096.160152   9175.388258 -20758.913270    712.363270                    
V 17  -4614.297777  26961.659850   8978.945035     -0.016170                    
P 18 -13649.983373  -9312.358310  20848.751852   -582.005037                    
V 18  23700.849254 -11549.503689  10183.006167     -0.072425                    
P 19  15369.469933   -753.858596 -21799.103325    458.666769                    
V 19  -4466.546783  26890.430787  -4476.859153      0.053086                    
P 20  19034.810705  -5241.528946  17756.720366    382.694370                    
V 20  19747.742981  10948.059034 -18152.493361     -0.014105                    
P 21 -12229.086946  18316.828056 -13614.386971    130.025356                    
V 21 -17396.413061   6886.725589  25066.568389     -0.015379                    
P 22  22177.300136   7771.865565 -11665.473846     10.800717                    
V 22  10294.958358  11996.829120  26889.307969     -0.058300                    
P 23 -20582.542935 -16472.396106   4023.740263    184.837077                    
V 23   5361.139753    987.762997  31469.501179      0.088082                    
P 24   8669.323351 -19250.565764 -16278.700396   -450.854243                    
V 24  18576.104690  -8226.546511  20549.420905     -0.050497                    
P 25 -13549.516363 -19564.246456 -12405.369811    492.158853                    
V 25  13900.721407   6428.081949 -25776.487879      0.009437                    
P 26 -22383.206426   -525.714841  14409.098040    175.432075                    
V 26 -14750.412149 -11438.506245 -22722.954825     -0.047047                    
P 27 -12630.384714  16026.234358  16479.449892    -14.181705                    
V 27   -597.056053 -21730.335774  20748.145766     -0.026578                    
P 28 -23539.308379   2822.066571 -11985.666896   -176.969481                    
V 28  12407.477306  -9073.398269 -26544.313062     -0.143218                    
P 29  -5043.323681 -22845.790777  12418.501905   -603.901884                    
V 29   4519.664196 -15363.820376 -26417.045541      0.010431                    
P 30  21649.616243   2357.104988  15520.949644   -415.038225                    
V 30 -16564.859839  10404.800328  21447.084121      0.053714                    
P 31 -25011.061283   9257.361593  -2635.333147   -228.010958                    
V 31   1700.195920  -3657.632611 -31131.297074     -0.000207                    
P 32 -14552.121280  -5543.268919 -21331.043998   -616.789526                    
V 32   2262.890828 -27459.636517   5339.260033     -0.010063                    
EOF
